[{"OBJECT_NAME":"STARLINK-5120","OBJECT_ID":"2022-125U","EPOCH":"2026-03-09T15:13:15.661920","MEAN_MOTION":15.08821028,"ECCENTRICITY":0.0001318,"INCLINATION":53.2185,"RA_OF_ASC_NODE":214.4071,"ARG_OF_PERICENTER":99.9911,"MEAN_ANOMALY":260.123,"EPHEMERIS_TYPE":0,"CLASSIFICATION_TYPE":"U","NORAD_CAT_ID":53982,"ELEMENT_SET_NO":999,"REV_AT_EPOCH":18944,"BSTAR":-0.00012468,"MEAN_MOTION_DOT":-2.27e-5,"MEAN_MOTION_DDOT":0},{"OBJECT_NAME":"SL-24 PLAT","OBJECT_ID":"2014-033AR","EPOCH":"2026-03-09T22:47:27.152448","MEAN_MOTION":15.0919716,"ECCENTRICITY":0.00052059,"INCLINATION":98.0981,"RA_OF_ASC_NODE":61.9435,"ARG_OF_PERICENTER":212.2329,"MEAN_ANOMALY":147.8581,"EPHEMERIS_TYPE":0,"CLASSIFICATION_TYPE":"U","NORAD_CAT_ID":40049,"ELEMENT_SET_NO":999,"REV_AT_EPOCH":63724,"BSTAR":0.00046923352,"MEAN_MOTION_DOT":7.393e-5,"MEAN_MOTION_DDOT":0}]
